#aV2011  1 14  0  0   .00000000      96 DD+AD WGS84 FIT  NGA
## 1618 432000.00000000   900.00000000 55575  .0000000000000
+   32     1  2  3  4  5  6  7  8  9 10 11 12 13 14 15 16 17
+         18 19 20 21 22 23 24 25 26 27 28 29 30 31 32  0  0
+          0  0  0  0  0  0  0  0  0  0  0  0  0  0  0  0  0
+          0  0  0  0  0  0  0  0  0  0  0  0  0  0  0  0  0
+          0  0  0  0  0  0  0  0  0  0  0  0  0  0  0  0  0
++         0  0  0  0  0  0  0  0  0  0  0  0  0  0  0  0  0
++         0  0  0  0  0  0  0  0  0  0  0  0  0  0  0  0  0
++         0  0  0  0  0  0  0  0  0  0  0  0  0  0  0  0  0
++         0  0  0  0  0  0  0  0  0  0  0  0  0  0  0  0  0
++         0  0  0  0  0  0  0  0  0  0  0  0  0  0  0  0  0
%c cc cc ccc ccc cccc cccc cccc cccc ccccc ccccc ccccc ccccc
%c cc cc ccc ccc cccc cccc cccc cccc ccccc ccccc ccccc ccccc
%f  0.0000000  0.000000000  0.00000000000  0.000000000000000
%f  0.0000000  0.000000000  0.00000000000  0.000000000000000
%i    0    0    0    0      0      0      0      0         0
%i    0    0    0    0      0      0      0      0         0
/*      NGA, ST. LOUIS,MO.                                  
/*   EPHEMERIS COMPUTED FROM  3 DAYS OF DATA                
/* CCCCCCCCCCCCCCCCCCCCCCCCCCCCCCCCCCCCCCCCCCCCCCCCCCCCCCCCC
/* CCCCCCCCCCCCCCCCCCCCCCCCCCCCCCCCCCCCCCCCCCCCCCCCCCCCCCCCC
*  2011  1 14 19 30   .00000000                                                 
P  1 -23776.516263  -4105.450314  11136.601756   -200.072948                    
V  1 -11515.587893  -8679.218580 -27378.643271      -.032249                    
P  2  22944.118024 -12647.030336  -2278.854406    314.681245                    
V  2   -391.473186   4889.655185 -31390.714407       .021784                    
P  3 -11708.819519  14488.242109  18410.461461    662.506285                    
V  3  -5813.335638 -23834.124685  15060.470028       .051400                    
P  4  23584.958867  -4051.339119 -12095.968006      8.667417                    
V  4 -11390.722551  10050.510161 -25664.730375       .099647                    
P  5  16544.654853  -6846.349781  19630.573340    -98.849952                    
V  5  21392.958822  12903.686720 -13414.916115      -.059628                    
P  6 -14256.555625   9673.448680  20329.379310     -8.048916                    
V  6  -3269.591415 -25418.909749  10075.298120      -.303508                    
P  7   9200.525833  11864.702899  21923.689349      1.817292                    
V  7 -23723.609420  14441.891816   1946.232371       .005829                    
P  8  18932.164242   3822.415881  18495.607688      7.164000                    
V  8 -20338.730818  11115.830166  18011.438731       .000761                    
P  9  10074.135401 -19162.373514 -15920.727132     55.342729                    
V  9  16845.780792  -9290.636397  22632.044807       .024250                    
P 10  24216.840640   6135.114201   9336.499120    -63.238767                    
V 10   9181.860705   8223.228363 -28220.301842      -.010379                    
P 11  -5518.798984  21933.483900 -13960.709284   -119.296491                    
V 11 -15083.539109   9874.406581  22327.412193      -.030962                    
P 12    683.853605 -16074.600520 -21124.882802    -35.801780                    
V 12  23703.692090  12596.980237  -8648.841951       .033292                    
P 13   5729.035676  23622.684124  10513.472646    285.901375                    
V 13  -2358.040671  13429.534521 -28564.199032      -.012694                    
P 14 -13755.708917  -8301.575170 -21017.766289    123.760467                    
V 14   1280.679887 -26936.601909   9599.951903       .029199                    
P 15   3644.506887 -25352.218665   6733.198905   -161.276882                    
V 15   3470.663750   8425.734298  30075.019913       .038082                    
P 16 -19418.239345   2854.206517  18062.599790   -142.670977                    
V 16 -19031.648327 -12476.282138 -18241.480444      -.030501                    
P 17  14040.470485  10111.804719 -20093.852789    181.658927                    
V 17   -974.764408  25715.950277  11965.919650       .006862                    
P 18 -19299.831700 -17140.313960   7334.178356    115.939272                    
V 18   9226.808496   1694.345555  29068.739073       .020795                    
P 19  -8425.275159  22836.179638  10220.686901   -101.505688                    
V 19  -2096.169713 -13222.991853  28150.462607      -.036098                    
P 20   4354.004285  18001.900434 -19207.645345     48.793707                    
V 20 -22324.369811  -9347.367963 -13858.642899      -.000854                    
P 21 -11253.880603 -11795.088836  21396.390778   -116.669426                    
V 21  22516.594035 -13714.010701   3735.091348      -.027325                    
P 22 -24097.612861 -10610.171892  -3696.628351    155.122271                    
V 22  -2469.875068  -5556.783291  30577.965390      -.007904                    
P 23   -119.017212  26362.515426   -830.973540    332.194214                    
V 23  -2959.742460  -1011.590529 -32069.567903      -.022755                    
P 24  -8383.697055  18438.450128 -16983.941358    356.517706                    
V 24 -20197.723304   8535.352799  19427.900423       .033039                    
P 25 -14108.546901 -18004.997303 -13514.945538    -63.579347                    
V 25  16185.816758   6024.048200 -24945.851478      -.019969                    
P 26  11707.111253 -16224.598657  16670.730811    -96.192562                    
V 26    661.414698  22444.918773  21081.765045      -.091651                    
P 27  15886.160923 -18534.838359  -9451.317188    226.969367                    
V 27  12103.045312  -5407.239807  29159.664001       .037951                    
P 28  22971.347862  13621.774801     -9.052926     14.564160                    
V 28   -588.023541   2210.253288  31846.424035       .019052                    
P 29  -5512.680884 -24705.716882   8182.413113    178.029241                    
V 29   2636.225336 -10251.857348 -29423.970583       .026731                    
P 30 -23425.374555  -2073.677237  11969.511710    313.478022                    
V 30 -13150.211578  -9175.688390 -26390.535823       .033219                    
P 31 -23719.316591   6358.698966 -10153.420821     29.722998                    
V 31  10242.685129  -8417.987474 -28401.317059       .042473                    
P 32  -5197.112254  14583.688326 -21318.498582   -175.061698                    
V 32 -23308.288260 -15064.065984  -4170.097484      -.081333                    
EOF
